[{"OBJECT_NAME":"STARLINK-1591","OBJECT_ID":"2020-055U","EPOCH":"2026-03-10T00:00:02.999808","MEAN_MOTION":15.18497861,"ECCENTRICITY":3.326e-5,"INCLINATION":53.1044,"RA_OF_ASC_NODE":124.8093,"ARG_OF_PERICENTER":103.7008,"MEAN_ANOMALY":218.0512,"EPHEMERIS_TYPE":0,"CLASSIFICATION_TYPE":"U","NORAD_CAT_ID":46045,"ELEMENT_SET_NO":999,"REV_AT_EPOCH":579,"BSTAR":0.0057904655,"MEAN_MOTION_DOT":0.00122649,"MEAN_MOTION_DDOT":0},{"OBJECT_NAME":"HUNITY","OBJECT_ID":"2025-276E","EPOCH":"2026-03-09T18:00:58.161024","MEAN_MOTION":15.21896165,"ECCENTRICITY":0.0006587,"INCLINATION":97.4154,"RA_OF_ASC_NODE":144.0054,"ARG_OF_PERICENTER":10.2177,"MEAN_ANOMALY":349.9192,"EPHEMERIS_TYPE":0,"CLASSIFICATION_TYPE":"U","NORAD_CAT_ID":66670,"ELEMENT_SET_NO":999,"REV_AT_EPOCH":1533,"BSTAR":0.001210955,"MEAN_MOTION_DOT":0.0002759,"MEAN_MOTION_DDOT":0}]
